[
    {
        "Altitude(m)": 607897.6290250076,
        "Argument of Periapsis(deg)": 0.0,
        "Eccentricity": 0.0,
        "Inclination(deg)": 60.0,
        "Latitude(deg)": -14.293015653177433,
        "Longitude(deg)": -8.381216570756013,
        "Mean Anomaly(deg)": -16.363600000000048,
        "RAAN(deg)": 100.0,
        "Satellite Name": "Test1 461",
        "Satellite Number": 461,
        "Semi-Major Axis(m)": 6980739.136638005,
        "Time(s)": 0
    },
    {
        "Altitude(m)": 607750.8297190558,
        "Argument of Periapsis(deg)": 0.00010418945913296404,
        "Eccentricity": 0.0,
        "Inclination(deg)": 60.0,
        "Latitude(deg)": -13.758856493350411,
        "Longitude(deg)": -8.094148646979585,
        "Mean Anomaly(deg)": -15.743493854538157,
        "RAAN(deg)": 99.99957995086025,
        "Satellite Name": "Test1 461",
        "Satellite Number": 461,
        "Semi-Major Axis(m)": 6980739.136638005,
        "Time(s)": 10
    },
    {
        "Altitude(m)": 607606.5546991864,
        "Argument of Periapsis(deg)": 0.0002083789182659281,
        "Eccentricity": 0.0,
        "Inclination(deg)": 60.0,
        "Latitude(deg)": -13.224222587126793,
        "Longitude(deg)": -7.808557128080472,
        "Mean Anomaly(deg)": -15.12338770907637,
        "RAAN(deg)": 99.99915990172052,
        "Satellite Name": "Test1 461",
        "Satellite Number": 461,
        "Semi-Major Axis(m)": 6980739.136638005,
        "Time(s)": 20
    },
    {
        "Altitude(m)": 607464.8483377986,
        "Argument of Periapsis(deg)": 0.00031256837739889213,
        "Eccentricity": 0.0,
        "Inclination(deg)": 60.0,
        "Latitude(deg)": -12.689134238935944,
        "Longitude(deg)": -7.5243773346777,
        "Mean Anomaly(deg)": -14.503281563614529,
        "RAAN(deg)": 99.99873985258077,
        "Satellite Name": "Test1 461",
        "Satellite Number": 461,
        "Semi-Major Axis(m)": 6980739.136638005,
        "Time(s)": 30
    },
    {
        "Altitude(m)": 607325.7537301878,
        "Argument of Periapsis(deg)": 0.0004167578365318562,
        "Eccentricity": 0.0,
        "Inclination(deg)": 60.0,
        "Latitude(deg)": -12.153611480660281,
        "Longitude(deg)": -7.24154493004969,
        "Mean Anomaly(deg)": -13.883175418152739,
        "RAAN(deg)": 99.99831980344103,
        "Satellite Name": "Test1 461",
        "Satellite Number": 461,
        "Semi-Major Axis(m)": 6980739.136638005,
        "Time(s)": 40
    },
    {
        "Altitude(m)": 607189.3126762575,
        "Argument of Periapsis(deg)": 0.0005209472956648203,
        "Eccentricity": 0.0,
        "Inclination(deg)": 60.0,
        "Latitude(deg)": -11.617674085578006,
        "Longitude(deg)": -6.95999688860008,
        "Mean Anomaly(deg)": -13.263069272690899,
        "RAAN(deg)": 99.99789975430129,
        "Satellite Name": "Test1 461",
        "Satellite Number": 461,
        "Semi-Major Axis(m)": 6980739.136638005,
        "Time(s)": 50
    },
    {
        "Altitude(m)": 607055.5656628074,
        "Argument of Periapsis(deg)": 0.0006251367547977843,
        "Eccentricity": 0.0,
        "Inclination(deg)": 60.0,
        "Latitude(deg)": -11.081341581948546,
        "Longitude(deg)": -6.6796709521272755,
        "Mean Anomaly(deg)": -12.64296312722906,
        "RAAN(deg)": 99.99747970516155,
        "Satellite Name": "Test1 461",
        "Satellite Number": 461,
        "Semi-Major Axis(m)": 6980739.136638005,
        "Time(s)": 60
    },
    {
        "Altitude(m)": 606924.5518464856,
        "Argument of Periapsis(deg)": 0.0007293262139307483,
        "Eccentricity": 0.0,
        "Inclination(deg)": 60.0,
        "Latitude(deg)": -10.544633266261014,
        "Longitude(deg)": -6.400505086740698,
        "Mean Anomaly(deg)": -12.02285698176722,
        "RAAN(deg)": 99.9970596560218,
        "Satellite Name": "Test1 461",
        "Satellite Number": 461,
        "Semi-Major Axis(m)": 6980739.136638005,
        "Time(s)": 70
    },
    {
        "Altitude(m)": 606796.3090373978,
        "Argument of Periapsis(deg)": 0.0008335156730637124,
        "Eccentricity": 0.0,
        "Inclination(deg)": 60.0,
        "Latitude(deg)": -10.007568216167435,
        "Longitude(deg)": -6.122438453269447,
        "Mean Anomaly(deg)": -11.40275083630543,
        "RAAN(deg)": 99.99663960688206,
        "Satellite Name": "Test1 461",
        "Satellite Number": 461,
        "Semi-Major Axis(m)": 6980739.136638005,
        "Time(s)": 80
    },
    {
        "Altitude(m)": 606670.8736833167,
        "Argument of Periapsis(deg)": 0.0009377051321966765,
        "Eccentricity": 0.0,
        "Inclination(deg)": 60.0,
        "Latitude(deg)": -9.470165303112895,
        "Longitude(deg)": -5.845410865387317,
        "Mean Anomaly(deg)": -10.782644690843538,
        "RAAN(deg)": 99.99621955774232,
        "Satellite Name": "Test1 461",
        "Satellite Number": 461,
        "Semi-Major Axis(m)": 6980739.136638005,
        "Time(s)": 90
    },
    {
        "Altitude(m)": 606548.280854645,
        "Argument of Periapsis(deg)": 0.0010418945913296407,
        "Eccentricity": 0.0,
        "Inclination(deg)": 60.0,
        "Latitude(deg)": -8.932443204683468,
        "Longitude(deg)": -5.569362248297945,
        "Mean Anomaly(deg)": -10.162538545381684,
        "RAAN(deg)": 99.99579950860257,
        "Satellite Name": "Test1 461",
        "Satellite Number": 461,
        "Semi-Major Axis(m)": 6980739.136638005,
        "Time(s)": 100
    },
    {
        "Altitude(m)": 606428.5642299509,
        "Argument of Periapsis(deg)": 0.0011460840504626045,
        "Eccentricity": 0.0,
        "Inclination(deg)": 60.0,
        "Latitude(deg)": -8.394420416690481,
        "Longitude(deg)": -5.294233610824813,
        "Mean Anomaly(deg)": -9.542432399919894,
        "RAAN(deg)": 99.99537945946282,
        "Satellite Name": "Test1 461",
        "Satellite Number": 461,
        "Semi-Major Axis(m)": 6980739.136638005,
        "Time(s)": 110
    },
    {
        "Altitude(m)": 606311.7560822746,
        "Argument of Periapsis(deg)": 0.0012502735095955685,
        "Eccentricity": 0.0,
        "Inclination(deg)": 60.0,
        "Latitude(deg)": -7.8561152650033055,
        "Longitude(deg)": -5.01996650512938,
        "Mean Anomaly(deg)": -8.922326254458055,
        "RAAN(deg)": 99.99495941032309,
        "Satellite Name": "Test1 461",
        "Satellite Number": 461,
        "Semi-Major Axis(m)": 6980739.136638005,
        "Time(s)": 120
    },
    {
        "Altitude(m)": 606197.88726605,
        "Argument of Periapsis(deg)": 0.0013544629687285324,
        "Eccentricity": 0.0,
        "Inclination(deg)": 60.0,
        "Latitude(deg)": -7.317545917149701,
        "Longitude(deg)": -4.746502486902324,
        "Mean Anomaly(deg)": -8.302220108996265,
        "RAAN(deg)": 99.99453936118334,
        "Satellite Name": "Test1 461",
        "Satellite Number": 461,
        "Semi-Major Axis(m)": 6980739.136638005,
        "Time(s)": 130
    },
    {
        "Altitude(m)": 606086.9872047656,
        "Argument of Periapsis(deg)": 0.0014586524278614966,
        "Eccentricity": 0.0,
        "Inclination(deg)": 60.0,
        "Latitude(deg)": -6.778730393701374,
        "Longitude(deg)": -4.473784088870533,
        "Mean Anomaly(deg)": -7.682113963534425,
        "RAAN(deg)": 99.99411931204361,
        "Satellite Name": "Test1 461",
        "Satellite Number": 461,
        "Semi-Major Axis(m)": 6980739.136638005,
        "Time(s)": 140
    },
    {
        "Altitude(m)": 605979.0838793148,
        "Argument of Periapsis(deg)": 0.0015628418869944607,
        "Eccentricity": 0.0,
        "Inclination(deg)": 60.0,
        "Latitude(deg)": -6.239686579456133,
        "Longitude(deg)": -4.201754281845162,
        "Mean Anomaly(deg)": -7.062007818072584,
        "RAAN(deg)": 99.99369926290386,
        "Satellite Name": "Test1 461",
        "Satellite Number": 461,
        "Semi-Major Axis(m)": 6980739.136638005,
        "Time(s)": 150
    },
    {
        "Altitude(m)": 605874.2038170425,
        "Argument of Periapsis(deg)": 0.0016670313461274247,
        "Eccentricity": 0.0,
        "Inclination(deg)": 60.0,
        "Latitude(deg)": -5.700432234433641,
        "Longitude(deg)": -3.9303559361538514,
        "Mean Anomaly(deg)": -6.4419016726107445,
        "RAAN(deg)": 99.99327921376411,
        "Satellite Name": "Test1 461",
        "Satellite Number": 461,
        "Semi-Major Axis(m)": 6980739.136638005,
        "Time(s)": 160
    },
    {
        "Altitude(m)": 605772.372081516,
        "Argument of Periapsis(deg)": 0.0017712208052603888,
        "Eccentricity": 0.0,
        "Inclination(deg)": 60.0,
        "Latitude(deg)": -5.160985004703073,
        "Longitude(deg)": -3.659532796301773,
        "Mean Anomaly(deg)": -5.8217955271489545,
        "RAAN(deg)": 99.99285916462438,
        "Satellite Name": "Test1 461",
        "Satellite Number": 461,
        "Semi-Major Axis(m)": 6980739.136638005,
        "Time(s)": 170
    },
    {
        "Altitude(m)": 605673.6122630236,
        "Argument of Periapsis(deg)": 0.001875410264393353,
        "Eccentricity": 0.0,
        "Inclination(deg)": 60.0,
        "Latitude(deg)": -4.621362433051504,
        "Longitude(deg)": -3.389228943085163,
        "Mean Anomaly(deg)": -5.201689381687064,
        "RAAN(deg)": 99.99243911548463,
        "Satellite Name": "Test1 461",
        "Satellite Number": 461,
        "Semi-Major Axis(m)": 6980739.136638005,
        "Time(s)": 180
    },
    {
        "Altitude(m)": 605577.9464697727,
        "Argument of Periapsis(deg)": 0.0019795997235263173,
        "Eccentricity": 0.0,
        "Inclination(deg)": 60.0,
        "Latitude(deg)": -4.081581969511191,
        "Longitude(deg)": -3.119388256001913,
        "Mean Anomaly(deg)": -4.581583236225274,
        "RAAN(deg)": 99.9920190663449,
        "Satellite Name": "Test1 461",
        "Satellite Number": 461,
        "Semi-Major Axis(m)": 6980739.136638005,
        "Time(s)": 190
    }
]